[
    {
        "id": 315,
        "satellite-name": "FLOCK 3P 59",
        "line1": "1 42022U 17008CC  20319.74120061 +.00004712 +00000-0 +17054-3 0  9996",
        "line2": "2 42022 097.3511 026.6800 0008482 116.3503 243.8609 15.28865301207472"
    },
    {
        "id": 316,
        "satellite-name": "FLOCK 3P 32",
        "line1": "1 42023U 17008CD  20319.67033685 +.00002308 +00000-0 +90196-4 0  9992",
        "line2": "2 42023 097.3501 025.1068 0009129 118.1487 242.0675 15.26845032208508"
    },
    {
        "id": 317,
        "satellite-name": "FLOCK 3P 71",
        "line1": "1 42024U 17008CE  20319.73117043 +.00004661 +00000-0 +16817-3 0  9992",
        "line2": "2 42024 097.3519 026.9443 0008801 118.5162 241.6966 15.28973040207481"
    },
    {
        "id": 318,
        "satellite-name": "FLOCK 3P 77",
        "line1": "1 42025U 17008CF  20319.73410429 +.00002434 +00000-0 +95110-4 0  9997",
        "line2": "2 42025 097.3528 025.6288 0009241 122.8245 237.3885 15.26798613208352"
    },
    {
        "id": 319,
        "satellite-name": "FLOCK 3P 80",
        "line1": "1 42026U 17008CG  20319.71445275 +.00002085 +00000-0 +81805-4 0  9991",
        "line2": "2 42026 097.3527 025.6379 0008786 123.3210 236.8872 15.26826771206494"
    },
    {
        "id": 320,
        "satellite-name": "FLOCK 3P 66",
        "line1": "1 42027U 17008CH  20319.79471408 +.00002391 +00000-0 +93414-4 0  9996",
        "line2": "2 42027 097.3504 025.2949 0009198 132.9549 227.2463 15.26812610208475"
    },
    {
        "id": 321,
        "satellite-name": "FLOCK 3P 65",
        "line1": "1 42028U 17008CJ  20319.79332733 +.00002002 +00000-0 +78670-4 0  9990",
        "line2": "2 42028 097.3511 025.3527 0008938 132.7022 227.4971 15.26811520208376"
    },
    {
        "id": 322,
        "satellite-name": "FLOCK 3P 50",
        "line1": "1 42029U 17008CK  20319.72477277 +.00002458 +00000-0 +96002-4 0  9991",
        "line2": "2 42029 097.3520 025.3538 0008657 133.9086 226.2869 15.26804285207686"
    },
    {
        "id": 323,
        "satellite-name": "FLOCK 3P 52",
        "line1": "1 42030U 17008CL  20319.69655599 +.00005332 +00000-0 +20180-3 0  9991",
        "line2": "2 42030 097.3515 025.3259 0008299 133.1799 227.0135 15.27329160208453"
    },
    {
        "id": 324,
        "satellite-name": "FLOCK 3P 46",
        "line1": "1 42031U 17008CM  20319.65748546 +.00001924 +00000-0 +75781-4 0  9994",
        "line2": "2 42031 097.3495 025.0859 0008588 134.3048 225.8897 15.26787976208504"
    },
    {
        "id": 325,
        "satellite-name": "FLOCK 3P 47",
        "line1": "1 42032U 17008CN  20319.78873167 +.00002624 +00000-0 +10231-3 0  9993",
        "line2": "2 42032 097.3499 025.2199 0008642 134.1987 225.9963 15.26805119208346"
    },
    {
        "id": 326,
        "satellite-name": "FLOCK 3P 44",
        "line1": "1 42033U 17008CP  20319.73612122 +.00005335 +00000-0 +20103-3 0  9992",
        "line2": "2 42033 097.3503 025.2272 0008022 133.1377 227.0534 15.27472088207082"
    },
    {
        "id": 327,
        "satellite-name": "FLOCK 3P 64",
        "line1": "1 42034U 17008CQ  20319.65037893 +.00002038 +00000-0 +80110-4 0  9992",
        "line2": "2 42034 097.3492 025.0828 0008514 138.2574 221.9316 15.26791176208494"
    },
    {
        "id": 328,
        "satellite-name": "FLOCK 3P 63",
        "line1": "1 42035U 17008CR  20319.73729799 +.00004521 +00000-0 +16904-3 0  9993",
        "line2": "2 42035 097.3498 025.5293 0008509 136.0027 224.1891 15.27814471206503"
    },
    {
        "id": 329,
        "satellite-name": "FLOCK 3P 62",
        "line1": "1 42036U 17008CS  20319.76081707 +.00004823 +00000-0 +17340-3 0  9997",
        "line2": "2 42036 097.3520 027.1364 0008270 132.8639 227.3297 15.29074476207809"
    },
    {
        "id": 330,
        "satellite-name": "FLOCK 3P 38",
        "line1": "1 42037U 17008CT  20319.73806830 +.00004620 +00000-0 +16981-3 0  9992",
        "line2": "2 42037 097.3514 026.2324 0008036 133.7391 226.4515 15.28369439208522"
    },
    {
        "id": 331,
        "satellite-name": "FLOCK 3P 39",
        "line1": "1 42038U 17008CU  20319.69317254 +.00004280 +00000-0 +16377-3 0  9996",
        "line2": "2 42038 097.3494 025.0776 0008249 138.4394 221.7473 15.27075237208406"
    },
    {
        "id": 332,
        "satellite-name": "FLOCK 3P 15",
        "line1": "1 42039U 17008CV  20319.69895089 +.00004560 +00000-0 +16755-3 0  9995",
        "line2": "2 42039 097.3506 026.0658 0008088 135.7754 224.4133 15.28386124207742"
    },
    {
        "id": 333,
        "satellite-name": "FLOCK 3P 13",
        "line1": "1 42040U 17008CW  20319.75202097 +.00004700 +00000-0 +17179-3 0  9992",
        "line2": "2 42040 097.3515 026.4112 0008024 134.5835 225.6061 15.28541985207752"
    },
    {
        "id": 334,
        "satellite-name": "FLOCK 3P 55",
        "line1": "1 42041U 17008CX  20319.74573255 +.00002207 +00000-0 +86519-4 0  9994",
        "line2": "2 42041 097.3496 025.2585 0008109 140.8406 219.3421 15.26794510208528"
    },
    {
        "id": 335,
        "satellite-name": "FLOCK 3P 56",
        "line1": "1 42042U 17008CY  20319.73395553 +.00005127 +00000-0 +18257-3 0  9994",
        "line2": "2 42042 097.3516 027.5338 0007687 133.1230 227.0655 15.29359740208466"
    },
    {
        "id": 336,
        "satellite-name": "FLOCK 3P 81",
        "line1": "1 42043U 17008CZ  20319.75579483 +.00004174 +00000-0 +16124-3 0  9995",
        "line2": "2 42043 097.3534 025.6086 0009214 124.3402 235.8710 15.26770665207690"
    },
    {
        "id": 337,
        "satellite-name": "FLOCK 3P 87",
        "line1": "1 42044U 17008DA  20319.77675326 +.00001862 +00000-0 +73938-4 0  9999",
        "line2": "2 42044 097.3516 025.4585 0009227 121.0590 239.1555 15.26550763207845"
    },
    {
        "id": 338,
        "satellite-name": "FLOCK 3P 29",
        "line1": "1 42045U 17008DB  20319.74308408 +.00004993 +00000-0 +18236-3 0  9998",
        "line2": "2 42045 097.3497 026.0180 0008634 115.3527 244.8608 15.28534199207758"
    },
    {
        "id": 339,
        "satellite-name": "FLOCK 3P 82",
        "line1": "1 42046U 17008DC  20319.77619271 +.00004460 +00000-0 +16184-3 0  9994",
        "line2": "2 42046 097.3550 027.2598 0008925 117.1192 243.0959 15.28805739207858"
    },
    {
        "id": 340,
        "satellite-name": "FLOCK 3P 78",
        "line1": "1 42047U 17008DD  20319.72197019 +.00004490 +00000-0 +16530-3 0  9999",
        "line2": "2 42047 097.3522 026.3191 0008917 118.4737 241.7401 15.28323119207727"
    },
    {
        "id": 341,
        "satellite-name": "FLOCK 3P 74",
        "line1": "1 42048U 17008DE  20319.76077279 +.00003182 +00000-0 +12353-3 0  9995",
        "line2": "2 42048 097.3541 025.6622 0009452 121.5246 238.6917 15.26780362207671"
    },
    {
        "id": 342,
        "satellite-name": "FLOCK 3P 31",
        "line1": "1 42049U 17008DF  20319.81998593 +.00002075 +00000-0 +81532-4 0  9999",
        "line2": "2 42049 097.3497 025.2099 0009059 118.8316 241.3834 15.26777580207145"
    },
    {
        "id": 343,
        "satellite-name": "FLOCK 3P 83",
        "line1": "1 42050U 17008DG  20319.75271473 +.00004211 +00000-0 +16134-3 0  9994",
        "line2": "2 42050 097.3535 025.5653 0009173 121.5975 238.6161 15.27036668208406"
    },
    {
        "id": 344,
        "satellite-name": "FLOCK 3P 72",
        "line1": "1 42051U 17008DH  20319.66101798 +.00004759 +00000-0 +17457-3 0  9993",
        "line2": "2 42051 097.3549 026.6159 0008638 119.9545 240.2554 15.28417956206041"
    },
    {
        "id": 345,
        "satellite-name": "LEMUR 2 ANGELA",
        "line1": "1 42752U 17019B   20319.76983208 +.00002215 +00000-0 +82031-4 0  9994",
        "line2": "2 42752 051.6380 169.2351 0010179 126.7396 233.4522 15.32153056192132"
    },
    {
        "id": 346,
        "satellite-name": "LEMUR 2 JENNYBARNA",
        "line1": "1 42753U 17019C   20319.80790278 +.00003944 +00000-0 +12909-3 0  9999",
        "line2": "2 42753 051.6368 160.6713 0009588 133.3314 226.8469 15.34043791192202"
    },
    {
        "id": 347,
        "satellite-name": "LEMUR 2 ROBMOORE",
        "line1": "1 42754U 17019D   20319.78227293 +.00002909 +00000-0 +10434-3 0  9990",
        "line2": "2 42754 051.6381 170.0337 0010060 128.7686 231.4195 15.32046204192109"
    },
    {
        "id": 348,
        "satellite-name": "LEMUR 2 SPIROVISION",
        "line1": "1 42755U 17019E   20319.89055414 +.00003738 +00000-0 +12301-3 0  9993",
        "line2": "2 42755 051.6394 160.1538 0009728 135.2444 332.5356 15.34027000192131"
    },
    {
        "id": 349,
        "satellite-name": "UCLSAT",
        "line1": "1 42765U 17036A   20319.80977676 +.00002267 +00000-0 +96626-4 0  9996",
        "line2": "2 42765 097.2824 009.8847 0010300 208.3890 151.6788 15.23913186189472"
    },
    {
        "id": 350,
        "satellite-name": "LITUANICASAT 2",
        "line1": "1 42768U 17036D   20319.78774586 +.00003584 +00000-0 +14735-3 0  9994",
        "line2": "2 42768 097.2890 010.1016 0013866 199.0585 161.0136 15.24715255188747"
    },
    {
        "id": 351,
        "satellite-name": "LEMUR 2 SHAINAJOHL",
        "line1": "1 42771U 17036G   20319.77938338 +.00002562 +00000-0 +11014-3 0  9996",
        "line2": "2 42771 097.2845 008.7470 0013443 201.9125 158.1539 15.23462356188612"
    },
    {
        "id": 352,
        "satellite-name": "LEMUR 2 XUENITERENCE",
        "line1": "1 42772U 17036H   20319.80665365 +.00002540 +00000-0 +10862-3 0  9994",
        "line2": "2 42772 097.2821 008.8023 0012991 200.2585 159.8138 15.23661529188639"
    },
    {
        "id": 353,
        "satellite-name": "LEMUR 2 LUCYBRYCE",
        "line1": "1 42773U 17036J   20319.72130583 +.00001506 +00000-0 +66244-4 0  9992",
        "line2": "2 42773 097.2881 009.3722 0013094 200.0616 160.0108 15.23312758188634"
    }
]